{
  "type": "FeatureCollection",
  "features": [
    {
      "type": "Feature",
      "geometry": { "type": "Point", "coordinates": [18.6767, 44.5385] },
      "properties": { "name": "Pannonian Lakes", "name_bs": "Panonska jezera", "category": "nature" }
    },
    {
      "type": "Feature",
      "geometry": { "type": "Point", "coordinates": [18.6750, 44.5391] },
      "properties": { "name": "Old Town (Carsija)", "name_bs": "Stari grad (Carsija)", "category": "culture" }
    },
    {
      "type": "Feature",
      "geometry": { "type": "Point", "coordinates": [18.6732, 44.5388] },
      "properties": { "name": "Salt Square", "name_bs": "Trg soli", "category": "culture" }
    },
    {
      "type": "Feature",
      "geometry": { "type": "Point", "coordinates": [18.6800, 44.5300] },
      "properties": { "name": "Ilincica Hill", "name_bs": "Brdo Ilincica", "category": "nature" }
    },
    {
      "type": "Feature",
      "geometry": { "type": "Point", "coordinates": [18.6650, 44.5381] },
      "properties": { "name": "Tuzlanka Mall", "name_bs": "RK Tuzlanka", "category": "shopping" }
    },
    {
      "type": "Feature",
      "geometry": { "type": "Point", "coordinates": [18.651743, 44.532177] },
      "properties": { "name": "Bingo City Center", "name_bs": "Bingo City Centar", "category": "shopping" }
    },
    {
      "type": "Feature",
      "geometry": { "type": "Point", "coordinates": [18.676906, 44.538717] },
      "properties": { "name": "Hotel Mellain", "name_bs": "Hotel Mellain", "category": "hotel" }
    },
    {
      "type": "Feature",
      "geometry": { "type": "Point", "coordinates": [18.6730, 44.5398] },
      "properties": { "name": "Hotel Bristol", "name_bs": "Hotel Bristol", "category": "hotel" }
    },
    {
      "type": "Feature",
      "geometry": { "type": "Point", "coordinates": [18.674936, 44.537233] },
      "properties": { "name": "Mozaik Restaurant", "name_bs": "Restoran Mozaik", "category": "dining" }
    },
    {
      "type": "Feature",
      "geometry": { "type": "Point", "coordinates": [18.664660, 44.538497] },
      "properties": { "name": "Taco Bell", "name_bs": "Taco Bell", "category": "dining" }
    }
  ]
}
